[{"OBJECT_NAME":"STARLINK-6356","OBJECT_ID":"2023-099AM","EPOCH":"2026-03-09T11:36:16.741440","MEAN_MOTION":15.02535412,"ECCENTRICITY":0.00013055,"INCLINATION":43.0028,"RA_OF_ASC_NODE":237.2287,"ARG_OF_PERICENTER":267.0897,"MEAN_ANOMALY":92.9796,"EPHEMERIS_TYPE":0,"CLASSIFICATION_TYPE":"U","NORAD_CAT_ID":57363,"ELEMENT_SET_NO":999,"REV_AT_EPOCH":14623,"BSTAR":-7.8358666e-5,"MEAN_MOTION_DOT":-1.262e-5,"MEAN_MOTION_DDOT":0},{"OBJECT_NAME":"NOAA 17 DEB","OBJECT_ID":"2002-032BW","EPOCH":"2026-03-08T22:40:23.580768","MEAN_MOTION":15.05196658,"ECCENTRICITY":0.00149213,"INCLINATION":98.7181,"RA_OF_ASC_NODE":121.0481,"ARG_OF_PERICENTER":217.4424,"MEAN_ANOMALY":142.5761,"EPHEMERIS_TYPE":0,"CLASSIFICATION_TYPE":"U","NORAD_CAT_ID":48737,"ELEMENT_SET_NO":999,"REV_AT_EPOCH":26108,"BSTAR":0.0055556624,"MEAN_MOTION_DOT":0.00080221,"MEAN_MOTION_DDOT":0}]
